ONEWEB-0346             
1 49212U 21083AC  23224.94175760 -.00000008  00000+0 -52526-4 0  9997
2 49212  87.9285 182.0784 0002132  68.2889 291.8470 13.18687070 94306
ONEWEB-0348             
1 49213U 21083AD  23225.11080948  .00000041  00000+0  70133-4 0  9990
2 49213  87.9232 121.3367 0002558  62.9893 297.1502 13.20772716100959
ONEWEB-0350             
1 49214U 21083AE  23225.13309894  .00000211  00000+0  54394-3 0  9996
2 49214  87.9090 166.9267 0002436  73.5859 286.5538 13.13471433 95836
ONEWEB-0351             
1 49215U 21083AF  23224.72570448  .00000062  00000+0  11945-3 0  9995
2 49215  87.9234 121.4105 0002041  91.6385 268.4982 13.20770692100871
ONEWEB-0352             
1 49216U 21083AG  23224.80935678  .00000022  00000+0  24687-4 0  9999
2 49216  87.9089 166.9744 0002128  88.4789 271.6584 13.13472168 95888
ONEWEB-0354             
1 49217U 21083AH  23224.97823110  .00000117  00000+0  25661-3 0  9992
2 49217  87.9232 121.3439 0002316  80.4232 279.7163 13.20769768100948
ONEWEB-0355             
1 49218U 21083AJ  23225.06963509  .00000369  00000+0  97543-3 0  9998
2 49218  87.9087 166.9231 0002252  84.2334 275.9052 13.13467120 95796
ONEWEB-0357             
1 49219U 21083AK  23224.97401378  .00000035  00000+0  53809-4 0  9997
2 49219  87.9234 121.3626 0002011  76.5731 283.5626 13.20773650100933
